{"type": "FeatureCollection", "features": [ {"type": "Feature", "properties": {"norad_id": 43010, "name": "FENGYUN 3D", "group": "weather", "lat": -28.811301966783358, "lon": 138.68145464527515, "alt_km": 831.6400612254929, "timestamp": "2025-12-23T05:02:11.666890+00:00", "meta": {"OBJECT_NAME": "FENGYUN 3D", "OBJECT_ID": "2017-072A", "EPOCH": "2025-12-22T22:58:49.484352", "MEAN_MOTION": 14.19687363, "ECCENTRICITY": 0.00014355, "INCLINATION": 98.9905, "RA_OF_ASC_NODE": 323.4207, "ARG_OF_PERICENTER": 153.4136, "MEAN_ANOMALY": 206.7114, "EPHEMERIS_TYPE": 0, "CLASSIFICATION_TYPE": "U", "NORAD_CAT_ID": 43010, "ELEMENT_SET_NO": 999, "REV_AT_EPOCH": 41998, "BSTAR": 0.00011366705, "MEAN_MOTION_DOT": 1.94e-06, "MEAN_MOTION_DDOT": 0}, "tle": {"line1": "1 43010U 17072A   25356.95751718  .00000194  00000+0  11367-3 0  9993", "line2": "2 43010  98.9905 323.4207 0001435 153.4136 206.7114 14.19687363419987"}}, "geometry": {"type": "Point", "coordinates": [138.68145464527515, -28.811301966783358]}}, {"type": "Feature", "properties": {"norad_id": 43013, "name": "NOAA 20 (JPSS-1)", "group": "weather", "lat": -4.8405002822320675, "lon": -65.85909995988395, "alt_km": 830.1156815065224, "timestamp": "2025-12-23T05:02:11.666901+00:00", "meta": {"OBJECT_NAME": "NOAA 20 (JPSS-1)", "OBJECT_ID": "2017-073A", "EPOCH": "2025-12-22T20:36:04.737024", "MEAN_MOTION": 14.19528241, "ECCENTRICITY": 0.00021062, "INCLINATION": 98.7613, "RA_OF_ASC_NODE": 293.045, "ARG_OF_PERICENTER": 72.7351, "MEAN_ANOMALY": 287.4056, "EPHEMERIS_TYPE": 0, "CLASSIFICATION_TYPE": "U", "NORAD_CAT_ID": 43013, "ELEMENT_SET_NO": 999, "REV_AT_EPOCH": 41945, "BSTAR": 5.8491465e-05, "MEAN_MOTION_DOT": 7.9e-07, "MEAN_MOTION_DDOT": 0}, "tle": {"line1": "1 43013U 17073A   25356.85838816  .00000079  00000+0  58491-4 0  9993", "line2": "2 43013  98.7613 293.0450 0002106  72.7351 287.4056 14.19528241419456"}}, "geometry": {"type": "Point", "coordinates": [-65.85909995988395, -4.8405002822320675]}}, {"type": "Feature", "properties": {"norad_id": 43226, "name": "GOES 17", "group": "weather", "lat": -0.0695389092454653, "lon": 78.05295600415234, "alt_km": 35797.67989419423, "timestamp": "2025-12-23T05:02:11.666913+00:00", "meta": {"OBJECT_NAME": "GOES 17", "OBJECT_ID": "2018-022A", "EPOCH": "2025-12-22T21:18:00.186624", "MEAN_MOTION": 1.00272578, "ECCENTRICITY": 0.00029857, "INCLINATION": 0.4822, "RA_OF_ASC_NODE": 89.0945, "ARG_OF_PERICENTER": 190.2025, "MEAN_ANOMALY": 42.3831, "EPHEMERIS_TYPE": 0, "CLASSIFICATION_TYPE": "U", "NORAD_CAT_ID": 43226, "ELEMENT_SET_NO": 999, "REV_AT_EPOCH": 2865, "BSTAR": 0, "MEAN_MOTION_DOT": -1.61e-06, "MEAN_MOTION_DDOT": 0}, "tle": {"line1": "1 43226U 18022A   25356.88750216 -.00000161  00000+0  00000+0 0  9995", "line2": "2 43226   0.4822  89.0945 0002985 190.2025  42.3831  1.00272578 28657"}}, "geometry": {"type": "Point", "coordinates": [78.05295600415234, -0.0695389092454653]}}, {"type": "Feature", "properties": {"norad_id": 43491, "name": "FENGYUN 2H", "group": "weather", "lat": 0.6179448899017469, "lon": -113.09303089201462, "alt_km": 35776.218004743685, "timestamp": "2025-12-23T05:02:11.666933+00:00", "meta": {"OBJECT_NAME": "FENGYUN 2H", "OBJECT_ID": "2018-050A", "EPOCH": "2025-12-22T22:06:10.573344", "MEAN_MOTION": 1.00270917, "ECCENTRICITY": 0.00023746, "INCLINATION": 2.5756, "RA_OF_ASC_NODE": 81.2229, "ARG_OF_PERICENTER": 166.3922, "MEAN_ANOMALY": 254.9933, "EPHEMERIS_TYPE": 0, "CLASSIFICATION_TYPE": "U", "NORAD_CAT_ID": 43491, "ELEMENT_SET_NO": 999, "REV_AT_EPOCH": 2767, "BSTAR": 0, "MEAN_MOTION_DOT": -1.1e-06, "MEAN_MOTION_DDOT": 0}, "tle": {"line1": "1 43491U 18050A   25356.92095571 -.00000110  00000+0  00000+0 0  9995", "line2": "2 43491   2.5756  81.2229 0002374 166.3922 254.9933  1.00270917 27671"}}, "geometry": {"type": "Point", "coordinates": [-113.09303089201462, 0.6179448899017469]}}, {"type": "Feature", "properties": {"norad_id": 43689, "name": "METOP-C", "group": "weather", "lat": -29.671382099303482, "lon": -130.18135223405886, "alt_km": 826.7292650135596, "timestamp": "2025-12-23T05:02:11.666945+00:00", "meta": {"OBJECT_NAME": "METOP-C", "OBJECT_ID": "2018-087A", "EPOCH": "2025-12-22T21:17:40.750080", "MEAN_MOTION": 14.2148817, "ECCENTRICITY": 7.522e-05, "INCLINATION": 98.6914, "RA_OF_ASC_NODE": 54.5007, "ARG_OF_PERICENTER": 20.3531, "MEAN_ANOMALY": 339.7676, "EPHEMERIS_TYPE": 0, "CLASSIFICATION_TYPE": "U", "NORAD_CAT_ID": 43689, "ELEMENT_SET_NO": 999, "REV_AT_EPOCH": 36978, "BSTAR": 8.4371738e-05, "MEAN_MOTION_DOT": 1.41e-06, "MEAN_MOTION_DDOT": 0}, "tle": {"line1": "1 43689U 18087A   25356.88727720  .00000141  00000+0  84372-4 0  9999", "line2": "2 43689  98.6914  54.5007 0000752  20.3531 339.7676 14.21488170369788"}}, "geometry": {"type": "Point", "coordinates": [-130.18135223405886, -29.671382099303482]}}, {"type": "Feature", "properties": {"norad_id": 43823, "name": "GEO-KOMPSAT-2A", "group": "weather", "lat": -0.018748786101698008, "lon": -64.19584863904629, "alt_km": 35788.07606611618, "timestamp": "2025-12-23T05:02:11.666957+00:00", "meta": {"OBJECT_NAME": "GEO-KOMPSAT-2A", "OBJECT_ID": "2018-100A", "EPOCH": "2025-12-22T20:08:38.856768", "MEAN_MOTION": 1.00269905, "ECCENTRICITY": 3.586e-05, "INCLINATION": 0.0513, "RA_OF_ASC_NODE": 125.1967, "ARG_OF_PERICENTER": 328.8026, "MEAN_ANOMALY": 68.0638, "EPHEMERIS_TYPE": 0, "CLASSIFICATION_TYPE": "U", "NORAD_CAT_ID": 43823, "ELEMENT_SET_NO": 999, "REV_AT_EPOCH": 2586, "BSTAR": 0, "MEAN_MOTION_DOT": -3.22e-06, "MEAN_MOTION_DDOT": 0}, "tle": {"line1": "1 43823U 18100A   25356.83933862 -.00000322  00000+0  00000+0 0  9999", "line2": "2 43823   0.0513 125.1967 0000358 328.8026  68.0638  1.00269905 25861"}}, "geometry": {"type": "Point", "coordinates": [-64.19584863904629, -0.018748786101698008]}}, {"type": "Feature", "properties": {"norad_id": 44387, "name": "METEOR-M2 2", "group": "weather", "lat": 29.37878803793199, "lon": -27.993067557177827, "alt_km": 809.5491248648577, "timestamp": "2025-12-23T05:02:11.666984+00:00", "meta": {"OBJECT_NAME": "METEOR-M2 2", "OBJECT_ID": "2019-038A", "EPOCH": "2025-12-22T22:09:11.700576", "MEAN_MOTION": 14.24296032, "ECCENTRICITY": 0.00017176, "INCLINATION": 98.8978, "RA_OF_ASC_NODE": 336.7764, "ARG_OF_PERICENTER": 129.1281, "MEAN_ANOMALY": 231.005, "EPHEMERIS_TYPE": 0, "CLASSIFICATION_TYPE": "U", "NORAD_CAT_ID": 44387, "ELEMENT_SET_NO": 999, "REV_AT_EPOCH": 33620, "BSTAR": 0.00011393194, "MEAN_MOTION_DOT": 2.17e-06, "MEAN_MOTION_DDOT": 0}, "tle": {"line1": "1 44387U 19038A   25356.92305209  .00000217  00000+0  11393-3 0  9997", "line2": "2 44387  98.8978 336.7764 0001717 129.1281 231.0050 14.24296032336201"}}, "geometry": {"type": "Point", "coordinates": [-27.993067557177827, 29.37878803793199]}}, {"type": "Feature", "properties": {"norad_id": 47719, "name": "ARKTIKA-M 1", "group": "weather", "lat": 61.00351550323124, "lon": 148.38812080595835, "alt_km": 37383.3866750003, "timestamp": "2025-12-23T05:02:11.667000+00:00", "meta": {"OBJECT_NAME": "ARKTIKA-M 1", "OBJECT_ID": "2021-016A", "EPOCH": "2025-12-22T01:06:25.193952", "MEAN_MOTION": 2.00630804, "ECCENTRICITY": 0.72089477, "INCLINATION": 63.1758, "RA_OF_ASC_NODE": 82.7279, "ARG_OF_PERICENTER": 269.1606, "MEAN_ANOMALY": 15.5458, "EPHEMERIS_TYPE": 0, "CLASSIFICATION_TYPE": "U", "NORAD_CAT_ID": 47719, "ELEMENT_SET_NO": 999, "REV_AT_EPOCH": 3523, "BSTAR": 0, "MEAN_MOTION_DOT": -8.3e-07, "MEAN_MOTION_DDOT": 0}, "tle": {"line1": "1 47719U 21016A   25356.04612493 -.00000083  00000+0  00000+0 0  9998", "line2": "2 47719  63.1758  82.7279 7208947 269.1606  15.5458  2.00630804 35236"}}, "geometry": {"type": "Point", "coordinates": [148.38812080595835, 61.00351550323124]}}, {"type": "Feature", "properties": {"norad_id": 49008, "name": "FENGYUN 3E", "group": "weather", "lat": -2.992453693134422, "lon": 177.14528279865604, "alt_km": 828.4591225390077, "timestamp": "2025-12-23T05:02:11.667012+00:00", "meta": {"OBJECT_NAME": "FENGYUN 3E", "OBJECT_ID": "2021-062A", "EPOCH": "2025-12-22T23:06:14.789952", "MEAN_MOTION": 14.19880663, "ECCENTRICITY": 8.557e-05, "INCLINATION": 98.7471, "RA_OF_ASC_NODE": 357.3622, "ARG_OF_PERICENTER": 199.3423, "MEAN_ANOMALY": 160.7721, "EPHEMERIS_TYPE": 0, "CLASSIFICATION_TYPE": "U", "NORAD_CAT_ID": 49008, "ELEMENT_SET_NO": 999, "REV_AT_EPOCH": 23157, "BSTAR": -0.00010163514, "MEAN_MOTION_DOT": -2.6e-06, "MEAN_MOTION_DDOT": 0}, "tle": {"line1": "1 49008U 21062A   25356.96267118 -.00000260  00000+0 -10164-3 0  9997", "line2": "2 49008  98.7471 357.3622 0000855 199.3423 160.7721 14.19880663231574"}}, "geometry": {"type": "Point", "coordinates": [177.14528279865604, -2.992453693134422]}}, {"type": "Feature", "properties": {"norad_id": 51850, "name": "GOES 18", "group": "weather", "lat": 0.000924766730736052, "lon": 30.548758242214973, "alt_km": 35785.73835944324, "timestamp": "2025-12-23T05:02:11.667024+00:00", "meta": {"OBJECT_NAME": "GOES 18", "OBJECT_ID": "2022-021A", "EPOCH": "2025-12-22T17:38:58.660224", "MEAN_MOTION": 1.00270666, "ECCENTRICITY": 3.328e-05, "INCLINATION": 0.0085, "RA_OF_ASC_NODE": 110.9395, "ARG_OF_PERICENTER": 215.7824, "MEAN_ANOMALY": 252.5601, "EPHEMERIS_TYPE": 0, "CLASSIFICATION_TYPE": "U", "NORAD_CAT_ID": 51850, "ELEMENT_SET_NO": 999, "REV_AT_EPOCH": 482, "BSTAR": 0, "MEAN_MOTION_DOT": 1.18e-06, "MEAN_MOTION_DDOT": 0}, "tle": {"line1": "1 51850U 22021A   25356.73540116  .00000118  00000+0  00000+0 0  9992", "line2": "2 51850   0.0085 110.9395 0000332 215.7824 252.5601  1.00270666  4822"}}, "geometry": {"type": "Point", "coordinates": [30.548758242214973, 0.000924766730736052]}}]}